CUTE-1 (CO-55)          
1 27844U 03031E   25316.44994522  .00000871  00000+0  39699-3 0  9992
2 27844  98.6775 322.7427 0010703  94.6057 265.6344 14.24141194160826
CUBESAT XI-IV (CO-57)   
1 27848U 03031J   25316.96413165  .00000731  00000+0  34077-3 0  9992
2 27848  98.6805 323.1357 0010551 109.2608 250.9713 14.23455733160617
CUBESAT XI-V            
1 28895U 05043F   25316.66451649  .00004786  00000+0  77433-3 0  9993
2 28895  98.2709 103.2410 0014637 168.2547 191.9004 14.71715421 69893
CUTE-1.7+APD II (CO-65) 
1 32785U 08021C   25316.95415376  .00015798  00000+0  10708-2 0  9990
2 32785  97.8049 289.6377 0010944  49.5297 310.6882 15.06498511952600
CANX-2                  
1 32790U 08021H   25316.88618578  .00012238  00000+0  90384-3 0  9992
2 32790  97.8384 288.1368 0012174  57.2030 303.0366 15.03333025952282
SEEDS II (CO-66)        
1 32791U 08021J   25316.90826902  .00035660  00000+0  14762-2 0  9997
2 32791  97.7431 301.0631 0004254  27.9409 332.2054 15.23841561954255
SWISSCUBE               
1 35932U 09051B   25316.17593443  .00002167  00000+0  44372-3 0  9998
2 35932  98.4131 215.2107 0006990 157.3245 202.8266 14.61814770857442
BEESAT-1                
1 35933U 09051C   25316.14729413  .00001839  00000+0  38356-3 0  9994
2 35933  98.4069 215.2515 0005155 168.5832 191.5486 14.61156177857486
ITUPSAT1                
1 35935U 09051E   25316.43061511  .00002572  00000+0  54668-3 0  9995
2 35935  98.4162 214.9465 0007146 181.8752 178.2422 14.59928596857103
TISAT 1                 
1 36799U 10035E   25316.74544382  .00038458  00000+0  16850-2 0  9996
2 36799  98.0561 240.9732 0001170 348.4750  11.6457 15.21902131834679
AEROCUBE 4.5A           
1 38767U 12048K   25316.55636162  .00093002  00000+0  17620-2 0  9998
2 38767  64.6435  62.0694 0077068 239.1641 120.1898 15.44576622338805
STRAND-1                
1 39090U 13009E   25316.45002414  .00000934  00000+0  32955-3 0  9993
2 39090  98.3832 137.1176 0009123 152.4610 207.7061 14.36966108665932
BRITE-AUSTRIA           
1 39091U 13009F   25316.44311822  .00000611  00000+0  22295-3 0  9997
2 39091  98.3897 136.3440 0010511 161.3528 198.8045 14.36409571665937
NEE-01 PEGASO           
1 39151U 13018B   25316.64977933  .00008769  00000+0  86813-3 0  9995
2 39151  98.0936  89.3042 0013636 153.1794 207.0132 14.92033083678392
POPACS 1                
1 39268U 13055D   25316.81212452  .00215257  12463-4  95688-3 0  9995
2 39268  80.9590 250.5935 0147729 153.2734 207.6238 15.69584184638865
POPACS 2                
1 39269U 13055E   25316.46351371  .00051777  00000+0  95324-3 0  9992
2 39269  80.9970  30.7298 0453245 165.9007 195.5372 14.81952861631001
POPACS 3                
1 39270U 13055F   25316.43493027  .00017205  00000+0  42468-3 0  9995
2 39270  81.0009 103.3687 0571169   8.0508 352.9376 14.51175264607069
ZACUBE-1 (TSHEPISOSAT)  
1 39417U 13066B   25316.81706742  .00013100  00000+0  10769-2 0  9991
2 39417  97.7990 273.3337 0041013 248.5650 111.1195 14.98617099648296
WNISAT-1                
1 39423U 13066H   25316.38961767  .00004076  00000+0  75385-3 0  9998
2 39423  97.6918 116.3953 0164120 194.3737 165.2766 14.57510949635146
TRITON-1                
1 39427U 13066M   25316.90023860  .00010688  00000+0  13137-2 0  9995
2 39427  97.8291 226.7334 0091210 217.9944 141.4812 14.80248772642072
GOMX-1                  
1 39430U 13066Q   25316.98919841  .00006587  00000+0  10046-2 0  9999
2 39430  97.6625 165.9756 0132045  51.8177 309.4837 14.68391184638173
CUBEBUG-2 (LO-74)       
1 39440U 13066AA  25316.82271429  .00012334  00000+0  11934-2 0  9990
2 39440  97.8658 260.5513 0061300  25.5458 334.8767 14.91481255644716
NEE-02 KRYSAOR          
1 39441U 13066AB  25316.73404467  .00006840  00000+0  76841-3 0  9995
2 39441  97.8684 252.9393 0069334  59.7456 301.0598 14.85300891644053
FUNCUBE-1 (AO-73)       
1 39444U 13066AE  25316.88088689  .00019734  00000+0  13607-2 0  9994
2 39444  97.8023 279.8168 0037738 215.7966 144.0730 15.05269876647072
UWE-3                   
1 39446U 13066AG  25316.36534919  .00015112  00000+0  13636-2 0  9999
2 39446  97.8435 266.7134 0050430 324.0420  35.7410 14.94635489645165
BRITE-CA1 (TORONTO)     
1 40020U 14033L   25316.32559218  .00003562  00000+0  54798-3 0  9990
2 40020  97.9466  84.7351 0078278 250.8942 108.3778 14.72066152610307
DUCHIFAT-1              
1 40021U 14033M   25316.54431435  .00065564  00000+0  17593-2 0  9996
2 40021  98.0839 345.2755 0008428 122.7837 237.4219 15.37684276622208
NANOSATC-BR1            
1 40024U 14033Q   25316.98129250  .00033419  00000+0  14064-2 0  9990
2 40024  98.0917 326.3085 0003099 188.0495 172.0691 15.23305924620973
QB50P1                  
1 40025U 14033R   25316.61526357  .00021466  00000+0  11950-2 0  9990
2 40025  98.0964 308.3202 0007620 241.7775 118.2685 15.13640485620214
QB50P2                  
1 40032U 14033Y   25316.69039526  .00019996  00000+0  11954-2 0  9992
2 40032  98.0620 295.9224 0007531 178.0471 182.0789 15.11086395619924
PERSEUS-M2              
1 40037U 14033AD  25316.95403931  .00005362  00000+0  50148-3 0  9992
2 40037  97.9705 258.5951 0010871 301.4407  58.5749 14.94503114618470
PERSEUS-M1              
1 40039U 14033AF  25316.80565015  .00004988  00000+0  46644-3 0  9999
2 40039  97.9412 252.8531 0010602 300.5267  59.4905 14.94542698618300
POLYITAN-1              
1 40042U 14033AJ  25316.49742390  .00049761  00000+0  20361-2 0  9996
2 40042  98.1095 318.5886 0008571 167.6034 192.5413 15.24124582620480
TIGRISAT                
1 40043U 14033AK  25316.83208445  .00006575  00000+0  77900-3 0  9991
2 40043  97.7546 107.3716 0051573  64.9677 295.6880 14.83914103613525
AEROCUBE 6A             
1 40045U 14033AM  25316.93063616  .00017228  00000+0  15647-2 0  9999
2 40045  97.7039 121.9333 0041271  20.4507 339.8354 14.94669831614271
AEROCUBE 6B             
1 40046U 14033AN  25316.93125317  .00018331  00000+0  16123-2 0  9993
2 40046  97.7018 121.3137 0039706  12.9549 347.2682 14.95959599614380
CANX-4                  
1 40055U 14034C   25316.88548972  .00003507  00000+0  46314-3 0  9999
2 40055  98.3386 178.9190 0012798 352.1784   7.9225 14.80664224612512
CANX-5                  
1 40056U 14034D   25316.88634585  .00003479  00000+0  45933-3 0  9990
2 40056  98.3388 178.9509 0012812 352.3594   7.7419 14.80679901603327
UKUBE-1                 
1 40074U 14037F   25316.42182425  .00029282  00000+0  18590-2 0  9992
2 40074  98.4125 292.8432 0002486 113.7416 246.4071 15.08827559615814
BRITE-PL2 (HEWELIUSZ)   
1 40119U 14049B   25316.78671542  .00006631  00000+0  63461-3 0  9998
2 40119  97.8987  62.5068 0015764 106.2141 254.0815 14.93445119609135
AEROCUBE 5C             
1 40965U 15058B   25316.14945016  .00003896  00000+0  34972-3 0  9993
2 40965  64.7675 217.0264 0141911 147.5345 213.4596 14.89814225333305
AEROCUBE 7              
1 40966U 15058C   25316.65998184  .00009479  00000+0  76806-3 0  9999
2 40966  64.7624 201.9815 0132512 147.1265 213.8180 14.93505664333591
FOX-1A (AO-85)          
1 40967U 15058D   25316.72916128  .00006941  00000+0  62353-3 0  9999
2 40967  64.7754 230.8962 0138499 141.3699 219.7422 14.89341973 81317
SINOD-D 1               
1 40968U 15058E   25316.72666274  .00010234  00000+0  83659-3 0  9996
2 40968  64.7750 215.6978 0127177 139.7997 221.2610 14.93622799 84307
SNAP-3 ALICE            
1 40970U 15058G   25316.70646333  .00072849  00000+0  23299-2 0  9994
2 40970  64.7600 113.6710 0051401 138.3629 222.1435 15.30696958 83470
LMRST-SAT               
1 40971U 15058H   25316.96735204  .00007492  00000+0  67318-3 0  9992
2 40971  64.7757 226.1071 0141012 143.0020 218.0919 14.89010905 81340
SNAP-3 EDDIE            
1 40972U 15058J   25316.70255816  .00075860  00000+0  23590-2 0  9998
2 40972  64.7527 105.6898 0054777 141.2171 219.2914 15.31394306 85599
PROPCUBE 3              
1 40973U 15058K   25316.70639055  .00008465  00000+0  70680-3 0  9990
2 40973  64.7686 207.9758 0134651 145.2054 215.7958 14.92274011 82470
BISONSAT                
1 40974U 15058L   25316.94972227  .00028464  00000+0  15789-2 0  9997
2 40974  64.7606 149.7310 0092743 142.2743 218.4931 15.10016566 82894
SNAP-3 JIMI             
1 40975U 15058M   25316.97153134  .00017116  00000+0  12232-2 0  9991
2 40975  64.7655 182.3753 0117590 143.7490 217.1669 14.99135426 81779
PROPCUBE 1 (FLORA)      
1 40976U 15058N   25316.52592227  .00006127  00000+0  57393-3 0  9991
2 40976  64.7745 246.0055 0140423 145.2141 215.8251 14.87702854 84018
SINOD-D 3               
1 40977U 15058P   25316.49065734  .00010828  00000+0  92147-3 0  9995
2 40977  64.7726 231.4809 0129317 144.1872 216.8000 14.91884108 82403
HORYU-4                 
1 41340U 16012D   25316.84688492  .00071987  00000+0  13556-2 0  9991
2 41340  30.9934 154.6826 0005070 292.4780  67.5332 15.47182744536911
RAVAN                   
1 41849U 16067B   25316.85964666  .00056524  00000+0  15518-2 0  9996
2 41849  98.0206 179.2423 0009201  53.0083 307.2000 15.37011116494287
CELTEE 1                
1 41850U 16067C   25316.85196909  .00015706  00000+0  80456-3 0  9996
2 41850  98.0908 163.7148 0000424  84.4761 275.6519 15.16690887493051
OPTICUBE 04             
1 41851U 16067D   25316.78509493  .00006375  00000+0  41421-3 0  9996
2 41851  98.0848 152.6804 0017129 126.2512 234.0301 15.08286270492538
AEROCUBE 8D             
1 41852U 16067E   25316.08263765  .00011778  00000+0  54546-3 0  9994
2 41852  98.0931 164.9546 0004092 145.5491 214.6008 15.20278289493035
AEROCUBE 8C             
1 41853U 16067F   25316.53358812  .00023311  00000+0  10673-2 0  9991
2 41853  98.0796 162.9694 0007066  87.8747 272.3296 15.20488883493092
PROMETHEUS 2-1          
1 41854U 16067G   25316.96686027  .00598489  00000+0  25474-2 0  9999
2 41854  98.0421 191.1351 0005782  72.7039 287.4860 15.83735633494779
